DMSP 5D-2 F14 (USA 131) 
1 24753U 97012A   19210.51380281  .00000053  00000-0  50348-4 0  9993
2 24753  99.0309 217.9672 0009559  48.5892 311.6101 14.15856337152623
NOAA 15                 
1 25338U 98030A   19210.46579955  .00000051  00000-0  40009-4 0  9997
2 25338  98.7451 231.6558 0011465 121.5467 238.6834 14.25923881103067
DMSP 5D-3 F15 (USA 147) 
1 25991U 99067A   19210.51532160 -.00000105  00000-0 -30260-4 0  9996
2 25991  98.9212 175.2473 0009098 307.2270 162.2399 14.16521850 14588
METEOSAT-8 (MSG-1)      
1 27509U 02040B   19210.19355007  .00000135  00000-0  00000+0 0  9990
2 27509   6.1595  55.4271 0000434 146.5898 215.6252  1.00268406 62038
DMSP 5D-3 F16 (USA 172) 
1 28054U 03048A   19210.50851442 -.00000109  00000-0 -34058-4 0  9992
2 28054  98.8690 186.4139 0008617  64.5595  44.5441 14.13682299814122
NOAA 18                 
1 28654U 05018A   19210.36851208  .00000061  00000-0  57655-4 0  9994
2 28654  99.0929 257.9415 0015200  65.8279 294.4479 14.12440970731263
METEOSAT-9 (MSG-2)      
1 28912U 05049B   19210.29900233  .00000014  00000-0  00000+0 0  9995
2 28912   3.7451  71.1538 0001589  49.3513 297.0524  1.00269957 49851
HIMAWARI-7 (MTSAT-2)    
1 28937U 06004A   19209.88945706 -.00000243  00000-0  00000-0 0  9997
2 28937   0.0703 273.8851 0003838 215.5245 282.0362  1.00269377 49136
FORMOSAT-3 FM6          
1 29047U 06011A   19210.78940792  .00000023  00000-0  25508-4 0  9998
2 29047  71.9785  50.5736 0051666 260.3828  99.1469 14.28689061695115
FORMOSAT-3 FM1          
1 29048U 06011B   19210.72974726  .00000045  00000-0  34125-4 0  9996
2 29048  71.9679 321.9852 0044711 219.1492 140.6408 14.28642506697574
FORMOSAT-3 FM5          
1 29049U 06011C   19210.18895038 -.00000010  00000-0  12255-4 0  9998
2 29049  72.0209 132.8983 0036661 249.1997 110.5211 14.28728684693282
FORMOSAT-3 FM3          
1 29050U 06011D   19210.69689026  .00000071  00000-0  25391-4 0  9995
2 29050  72.0169 311.0199 0050284 195.2346 164.7295 14.58816622709212
FORMOSAT-3 FM4          
1 29051U 06011E   19209.91572351  .00000030  00000-0  27587-4 0  9995
2 29051  72.0055  36.1223 0067164 126.7578 233.9751 14.28756333695838
FORMOSAT-3 FM2          
1 29052U 06011F   19209.86811170  .00000029  00000-0  27698-4 0  9996
2 29052  72.0349 109.4590 0041014 210.9337 148.9384 14.28854312693337
GOES 13                 
1 29155U 06018A   19210.43539728 -.00000143  00000-0  00000+0 0  9999
2 29155   0.1090 287.5931 0006868 317.3242 129.1319  0.99973836 48304
METOP-A                 
1 29499U 06044A   19210.86619687 -.00000006  00000-0  16603-4 0  9998
2 29499  98.5714 262.8803 0001982  96.8172 352.1028 14.21488644662918
DMSP 5D-3 F17 (USA 191) 
1 29522U 06050A   19210.47418245 -.00000079  00000-0 -18576-4 0  9998
2 29522  98.8194 226.4410 0010539  24.8635 335.3044 14.13999567656953
FENGYUN 3A              
1 32958U 08026A   19209.90849666 -.00000029  00000-0  55015-5 0  9995
2 32958  98.3810 207.9430 0008210 191.7151 168.3847 14.18605045578819
FENGYUN 2E              
1 33463U 08066A   19210.10415302 -.00000206  00000-0  00000+0 0  9996
2 33463   3.6777  69.1884 0003559 259.0110 102.3567  1.00278064 38875
NOAA 19                 
1 33591U 09005A   19210.49433230  .00000070  00000-0  63172-4 0  9996
2 33591  99.1814 202.6082 0012894 263.9034  96.0667 14.12367992539663
GOES 14                 
1 35491U 09033A   19210.43104920 -.00000092  00000-0  00000+0 0  9994
2 35491   0.3633 101.5100 0008644 116.3933 139.3390  1.00272648 36934
METEOR-M 1              
1 35865U 09049A   19210.89615766  .00000010  00000-0  23165-4 0  9992
2 35865  98.4131 207.1870 0003470  66.2000 293.9542 14.22202238511937
DMSP 5D-3 F18 (USA 210) 
1 35951U 09057A   19210.48812979  .00000097  00000-0  74455-4 0  9990
2 35951  98.6211 206.7255 0010373 207.7382 152.3239 14.13210992504244
GOES 15                 
1 36411U 10008A   19210.42132632  .00000054  00000-0  00000+0 0  9998
2 36411   0.2945  99.6017 0001555  12.2965 218.3551  1.00265428 34459
COMS 1                  
1 36744U 10032A   19209.89705497 -.00000344  00000-0  00000-0 0  9992
2 36744   0.0289 101.3957 0000744  50.7746 245.1885  1.00271206 25868
FENGYUN 3B              
1 37214U 10059A   19209.92986575 -.00000005  00000-0  20739-4 0  9995
2 37214  99.0033 182.4095 0017879 106.1266 254.1878 14.15920035451753
SUOMI NPP               
1 37849U 11061A   19209.89385583 -.00000022  00000-0  10391-4 0  9993
2 37849  98.7369 147.5460 0001551  93.6727 338.1459 14.19545857401588
FENGYUN 2F              
1 38049U 12002A   19209.91994498 -.00000358  00000-0  00000-0 0  9990
2 38049   1.3304  82.5673 0001007 170.7344 136.4194  1.00277073 27668
METEOSAT-10 (MSG-3)     
1 38552U 12035B   19207.36146764  .00000070  00000-0  00000+0 0  9996
2 38552   1.0490  26.3440 0001181 156.4770 260.9063  1.00283193 25975
METOP-B                 
1 38771U 12049A   19210.78124587 -.00000019  00000-0  11400-4 0  9998
2 38771  98.7005 269.5315 0001358 142.4878 326.4196 14.21493178356037
FENGYUN 3C              
1 39260U 13052A   19210.82270669 -.00000016  00000-0  13515-4 0  9991
2 39260  98.6003 268.2887 0012190  68.6116 291.6358 14.15869857302823
METEOR-M 2              
1 40069U 14037A   19210.42765078 -.00000027  00000-0  72032-5 0  9995
2 40069  98.5477 254.4206 0006317 133.9285 226.2414 14.20663429262202
HIMAWARI-8              
1 40267U 14060A   19209.97129273 -.00000275  00000-0  00000+0 0  9995
2 40267   0.0334 201.0137 0001229 337.6804 257.9605  1.00270780 17647
FENGYUN 2G              
1 40367U 14090A   19209.97862037 -.00000303  00000-0  00000-0 0  9994
2 40367   1.3275 100.1266 0000880 256.8735  41.2188  1.00272801 16819
METEOSAT-11 (MSG-4)     
1 40732U 15034A   19210.23577181 -.00000003  00000-0  00000+0 0  9999
2 40732   0.9624 255.8768 0002493 232.5739 262.8525  1.00271127 14814
ELEKTRO-L 2             
1 41105U 15074A   19210.38909278 -.00000098  00000-0  00000+0 0  9994
2 41105   0.4404 105.8958 0001625  12.6230  44.3290  1.00273392 13305
HIMAWARI-9              
1 41836U 16064A   19210.21681266 -.00000275  00000-0  00000+0 0  9998
2 41836   0.0344 314.2660 0000230 237.3349 333.7813  1.00273033 10089
GOES 16                 
1 41866U 16071A   19210.38070833 -.00000249  00000-0  00000+0 0  9990
2 41866   0.0076  99.5323 0000261 109.0011 160.0506  1.00270303  9892
FENGYUN 4A              
1 41882U 16077A   19209.91102258 -.00000330  00000-0  00000-0 0  9990
2 41882   0.0423  53.6975 0002743  96.1285 229.1325  1.00273674  9762
CYGFM05                 
1 41884U 16078A   19209.56749226  .00000142  00000-0  93346-5 0  9996
2 41884  34.9562 277.7351 0015766  22.4272 337.7126 15.14415859144823
CYGFM04                 
1 41885U 16078B   19210.56960756  .00000154  00000-0  98526-5 0  9990
2 41885  34.9491 266.4501 0013937  38.6544 321.5163 15.14924401145029
CYGFM02                 
1 41886U 16078C   19209.57413453  .00000159  00000-0  10097-4 0  9998
2 41886  34.9585 274.1473 0014815  26.5041 333.6426 15.14926469144865
CYGFM01                 
1 41887U 16078D   19210.22150815  .00000140  00000-0  92899-5 0  9994
2 41887  34.9529 274.3153 0016135  29.5389 330.6231 15.14233919144914
CYGFM08                 
1 41888U 16078E   19210.49949171  .00000163  00000-0  10401-4 0  9998
2 41888  34.9497 269.7242 0015223  36.7443 323.4309 15.14643055144972
CYGFM06                 
1 41889U 16078F   19210.21031538  .00000154  00000-0  98347-5 0  9994
2 41889  34.9578 268.8711 0013695  32.0683 328.0859 15.14916771144968
CYGFM07                 
1 41890U 16078G   19210.58409744  .00000147  00000-0  94641-5 0  9999
2 41890  34.9516 265.7921 0013392  38.0477 322.1178 15.14916260145022
CYGFM03                 
1 41891U 16078H   19209.59043725  .00000154  00000-0  98486-5 0  9991
2 41891  34.9549 272.1258 0012993  27.9360 332.2047 15.14915962144875
FENGYUN 3D              
1 43010U 17072A   19210.88563818 -.00000030  00000-0  63826-5 0  9999
2 43010  98.7154 149.5375 0000845 331.6606  28.4531 14.19723827 88283
NOAA 20                 
1 43013U 17073A   19210.47843958 -.00000034  00000-0  44840-5 0  9993
2 43013  98.7214 148.0190 0001250 104.5093 255.6221 14.19559404 87692
GOES 17                 
1 43226U 18022A   19210.42688337  .00000096  00000-0  00000+0 0  9998
2 43226   0.0135  96.2553 0000427  36.4721 190.5303  1.00272478  5214
FENGYUN 2H              
1 43491U 18050A   19209.95807164 -.00000125  00000-0  00000-0 0  9995
2 43491   1.4177 281.1307 0003068 239.1717 209.9924  1.00274377  4293
METOP-C                 
1 43689U 18087A   19210.80697842 -.00000044  00000-0  00000+0 0  9999
2 43689  98.7008 269.8719 0001970 180.5477 179.5677 14.21491079 37612
GEO-KOMPSAT-2A          
1 43823U 18100A   19210.83027715 -.00000346  00000-0  00000+0 0  9999
2 43823   0.0176 117.5482 0001734 348.7344 268.0499  1.00271201  2455
METEOR-M2 2             
1 44387U 19038A   19210.90197187 -.00000035  00000-0  35973-5 0  9993
2 44387  98.5705 173.3178 0002334  43.7115 316.4248 14.23333296  3507
